[
  {
    "OBJECT_NAME": "coke-zero-GPS-FIXTURE-1",
    "OBJECT_ID": "2026-002A",
    "NORAD_CAT_ID": 99002,
    "EPOCH": "2026-05-02T00:00:00.000000",
    "MEAN_MOTION": 2.0056,
    "ECCENTRICITY": 0.0041,
    "INCLINATION": 55.1,
    "RA_OF_ASC_NODE": 121.7,
    "ARG_OF_PERICENTER": 8.4,
    "MEAN_ANOMALY": 351.6,
    "EPHEMERIS_TYPE": 0,
    "CLASSIFICATION_TYPE": "U",
    "ELEMENT_SET_NO": 1,
    "REV_AT_EPOCH": 18,
    "BSTAR": 0.0,
    "MEAN_MOTION_DOT": 0.0,
    "MEAN_MOTION_DDOT": 0.0
  }
]
